CSS (TIANHE)            
1 48274U 21035A   23261.79086915  .00042777  00000+0  46723-3 0  9996
2 48274  41.4739 306.4724 0008149  49.1917 310.9629 15.62514042136464
